NORAD_CAT_ID,OBJECT_NAME,OBJECT_TYPE,EPOCH,MEAN_MOTION,ECCENTRICITY,INCLINATION,RA_OF_ASC_NODE,ARG_OF_PERICENTER,MEAN_ANOMALY,BSTAR,MEAN_MOTION_DOT,MEAN_MOTION_DDOT,TLE_LINE0,TLE_LINE1,TLE_LINE2,SEMIMAJOR_AXIS,PERIOD,APOGEE,PERIGEE,DECAYED
53973.0,STARLINK-5156,PAYLOAD,2023-09-18 10:31:55,15.08850399,0.0001423,53.2173,318.8512,83.3285,276.7869,7.0881e-05,8.41e-06,0.0,0 STARLINK-5156,1 53973U 22125K   23261.43883388  .00000841  00000-0  70881-4 0  9999,2 53973  53.2173 318.8512 0001423  83.3285 276.7869 15.08850399 53031,6917.849,95.437,540.698,538.729,0.0
53973.0,STARLINK-5156,PAYLOAD,2023-09-19 13:33:27,15.08859786,0.0001469,53.217,313.7946,98.7063,261.4095,0.00018033,2.585e-05,0.0,0 STARLINK-5156,1 53973U 22125K   23262.56490193  .00002585  00000-0  18033-3 0  9999,2 53973  53.2170 313.7946 0001469  98.7063 261.4095 15.08859786 53207,6917.82,95.436,540.701,538.669,0.0
53973.0,STARLINK-5156,PAYLOAD,2023-09-20 03:51:57,15.08830522,0.0001314,53.2166,311.1188,85.2805,274.8338,-0.0001211,-2.214e-05,0.0,0 STARLINK-5156,1 53973U 22125K   23263.16107795 -.00002214  00000-0 -12110-3 0  9990,2 53973  53.2166 311.1188 0001314  85.2805 274.8338 15.08830522 53290,6917.909,95.438,540.683,538.865,0.0
53973.0,STARLINK-5156,PAYLOAD,2023-09-20 10:13:29,15.08829151,0.0001391,53.2167,309.9297,80.1143,280.0006,-0.0001387,-2.494e-05,0.0,0 STARLINK-5156,1 53973U 22125K   23263.42604042 -.00002494  00000-0 -13870-3 0  9990,2 53973  53.2167 309.9297 0001391  80.1143 280.0006 15.08829151 53265,6917.914,95.438,540.741,538.816,0.0
53973.0,STARLINK-5156,PAYLOAD,2023-09-21 08:28:53,15.08840167,0.0001421,53.2168,305.7664,79.8378,280.2775,3.0191e-05,1.93e-06,0.0,0 STARLINK-5156,1 53973U 22125K   23264.35339961  .00000193  00000-0  30191-4 0  9996,2 53973  53.2168 305.7664 0001421  79.8378 280.2775 15.08840167 53475,6917.88,95.438,540.728,538.762,0.0
53973.0,STARLINK-5156,PAYLOAD,2023-09-21 13:15:03,15.08843636,0.0001404,53.2165,304.8736,77.7189,282.396,0.0001071,1.417e-05,0.0,0 STARLINK-5156,1 53973U 22125K   23264.55211842  .00001417  00000-0  10710-3 0  9999,2 53973  53.2165 304.8736 0001404  77.7189 282.3960 15.08843636 53439,6917.869,95.437,540.706,538.763,0.0
53973.0,STARLINK-5156,PAYLOAD,2023-09-21 19:36:35,15.08839811,0.0001418,53.2162,303.6842,74.0748,286.04,0.00020739,3.014e-05,0.0,0 STARLINK-5156,1 53973U 22125K   23264.81708212  .00003014  00000-0  20739-3 0  9997,2 53973  53.2162 303.6842 0001418  74.0748 286.0400 15.08839811 53471,6917.881,95.438,540.727,538.765,0.0
53973.0,STARLINK-5156,PAYLOAD,2023-09-22 09:55:04,15.08850012,0.000154,53.217,301.0093,76.9174,283.199,0.00041653,6.349e-05,0.0,0 STARLINK-5156,1 53973U 22125K   23265.41324107  .00006349  00000-0  41653-3 0  9993,2 53973  53.2170 301.0093 0001540  76.9174 283.1990 15.08850012 53636,6917.85,95.437,540.78,538.649,0.0
53973.0,STARLINK-5156,PAYLOAD,2023-09-22 19:27:22,15.08847179,0.0001576,53.2167,299.224,82.4984,277.6187,0.00022103,3.232e-05,0.0,0 STARLINK-5156,1 53973U 22125K   23265.81068050  .00003232  00000-0  22103-3 0  9996,2 53973  53.2167 299.2240 0001576  82.4984 277.6187 15.08847179 53629,6917.858,95.437,540.814,538.633,0.0
53973.0,STARLINK-5156,PAYLOAD,2023-09-23 01:48:55,15.08844917,0.0001646,53.2168,298.0351,85.8133,274.3047,0.00016469,2.334e-05,0.0,0 STARLINK-5156,1 53973U 22125K   23266.07564086  .00002334  00000-0  16469-3 0  9995,2 53973  53.2168 298.0351 0001646  85.8133 274.3047 15.08844917 53739,6917.865,95.437,540.869,538.592,0.0
53973.0,STARLINK-5156,PAYLOAD,2023-09-23 11:21:14,15.08847706,0.0001646,53.2168,296.2505,86.4981,273.6199,0.00016804,2.388e-05,0.0,0 STARLINK-5156,1 53973U 22125K   23266.47307953  .00002388  00000-0  16804-3 0  9999,2 53973  53.2168 296.2505 0001646  86.4981 273.6199 15.08847706 53726,6917.857,95.437,540.861,538.583,0.0
53973.0,STARLINK-5156,PAYLOAD,2023-09-24 01:39:42,15.08842479,0.0001577,53.2164,293.5747,84.709,275.4082,9.6801e-05,1.253e-05,0.0,0 STARLINK-5156,1 53973U 22125K   23267.06924170  .00001253  00000-0  96801-4 0  9997,2 53973  53.2164 293.5747 0001577  84.7090 275.4082 15.08842479 53885,6917.873,95.437,540.829,538.647,0.0
53973.0,STARLINK-5156,PAYLOAD,2023-09-24 08:01:14,15.08842889,0.000154,53.2164,292.3845,88.9661,271.1507,3.8797e-05,3.3e-06,0.0,0 STARLINK-5156,1 53973U 22125K   23267.33420091  .00000330  00000-0  38797-4 0  9995,2 53973  53.2164 292.3845 0001540  88.9661 271.1507 15.08842889 53858,6917.872,95.437,540.802,538.671,0.0
53973.0,STARLINK-5156,PAYLOAD,2023-09-25 01:30:29,15.0883956,0.0001552,53.2158,289.1136,88.7486,271.3684,0.00010229,1.34e-05,0.0,0 STARLINK-5156,1 53973U 22125K   23268.06284397  .00001340  00000-0  10229-3 0  9994,2 53973  53.2158 289.1136 0001552  88.7486 271.3684 15.08839560 54035,6917.882,95.438,540.82,538.673,0.0
53973.0,STARLINK-5156,PAYLOAD,2023-09-25 11:02:48,15.08847613,0.0001595,53.2163,287.329,90.4179,269.6996,0.00016533,2.345e-05,0.0,0 STARLINK-5156,1 53973U 22125K   23268.46028037  .00002345  00000-0  16533-3 0  9995,2 53973  53.2163 287.3290 0001595  90.4179 269.6996 15.08847613 54021,6917.857,95.437,540.826,538.619,0.0
53973.0,STARLINK-5156,PAYLOAD,2023-09-25 18:59:43,15.08849715,0.0001578,53.2164,285.8422,91.814,268.3033,0.00017558,2.508e-05,0.0,0 STARLINK-5156,1 53973U 22125K   23268.79147849  .00002508  00000-0  17558-3 0  9993,2 53973  53.2164 285.8422 0001578  91.8140 268.3033 15.08849715 54074,6917.851,95.437,540.807,538.624,0.0
53973.0,STARLINK-5156,PAYLOAD,2023-09-26 07:42:48,15.08850817,0.0001589,53.2167,283.4621,92.0607,268.0567,0.00019059,2.747e-05,0.0,0 STARLINK-5156,1 53973U 22125K   23269.32139689  .00002747  00000-0  19059-3 0  9999,2 53973  53.2167 283.4621 0001589  92.0607 268.0567 15.08850817 54158,6917.847,95.437,540.812,538.613,0.0
53973.0,STARLINK-5156,PAYLOAD,2023-09-27 01:12:03,15.08839238,0.0001668,53.2165,280.1909,93.0677,267.0506,-1.3498e-05,-5.03e-06,0.0,0 STARLINK-5156,1 53973U 22125K   23270.05004191 -.00000503  00000-0 -13498-4 0  9992,2 53973  53.2165 280.1909 0001668  93.0677 267.0506 15.08839238 54331,6917.883,95.438,540.902,538.594,0.0
53973.0,STARLINK-5156,PAYLOAD,2023-09-27 10:44:22,15.08840106,0.0001389,53.217,278.4068,91.231,268.8841,1.1452e-05,-1.06e-06,0.0,0 STARLINK-5156,1 53973U 22125K   23270.44748248 -.00000106  00000-0  11452-4 0  9999,2 53973  53.2170 278.4068 0001389  91.2310 268.8841 15.08840106 54323,6917.88,95.438,540.706,538.784,0.0
53973.0,STARLINK-5156,PAYLOAD,2023-09-28 04:13:38,15.08830923,0.0001347,53.2164,275.1354,79.4607,280.6536,-0.00011384,-2.099e-05,0.0,0 STARLINK-5156,1 53973U 22125K   23271.17613543 -.00002099  00000-0 -11384-3 0  9996,2 53973  53.2164 275.1354 0001347  79.4607 280.6536 15.08830923 54508,6917.908,95.438,540.705,538.841,0.0
53973.0,STARLINK-5156,PAYLOAD,2023-09-28 10:35:10,15.08831452,0.0001389,53.2169,273.9446,94.679,265.4361,-6.1414e-05,-1.265e-05,0.0,0 STARLINK-5156,1 53973U 22125K   23271.44109350 -.00001265  00000-0 -61414-4 0  9996,2 53973  53.2169 273.9446 0001389  94.6790 265.4361 15.08831452 54470,6917.907,95.438,540.732,538.811,0.0
53973.0,STARLINK-5156,PAYLOAD,2023-09-29 00:53:38,15.0883536,0.0001291,53.2172,271.2711,95.4602,264.6537,0.00010956,1.456e-05,0.0,0 STARLINK-5156,1 53973U 22125K   23272.03724948  .00001456  00000-0  10956-3 0  9992,2 53973  53.2172 271.2711 0001291  95.4602 264.6537 15.08835360 54639,6917.895,95.438,540.653,538.866,0.0
53973.0,STARLINK-5156,PAYLOAD,2023-09-29 10:25:56,15.08846025,0.0001321,53.2168,269.4856,91.6308,268.4836,0.00017352,2.475e-05,0.0,0 STARLINK-5156,1 53973U 22125K   23272.43468203  .00002475  00000-0  17352-3 0  9994,2 53973  53.2168 269.4856 0001321  91.6308 268.4836 15.08846025 54698,6917.862,95.437,540.641,538.813,0.0
53973.0,STARLINK-5156,PAYLOAD,2023-09-30 03:55:11,15.08844617,0.0001419,53.2171,266.2111,102.4282,257.6869,0.00012411,1.688e-05,0.0,0 STARLINK-5156,1 53973U 22125K   23273.16332588  .00001688  00000-0  12411-3 0  9997,2 53973  53.2171 266.2111 0001419 102.4282 257.6869 15.08844617 54805,6917.866,95.437,540.713,538.75,0.0
53973.0,STARLINK-5156,PAYLOAD,2023-09-30 05:30:34,15.08846388,0.000143,53.2168,265.9137,106.8043,253.3106,0.00013055,1.791e-05,0.0,0 STARLINK-5156,1 53973U 22125K   23273.22956429  .00001791  00000-0  13055-3 0  9990,2 53973  53.2168 265.9137 0001430 106.8043 253.3106 15.08846388 54748,6917.861,95.437,540.715,538.737,0.0
53973.0,STARLINK-5156,PAYLOAD,2023-09-30 16:38:16,15.08840568,0.0001338,53.2172,263.8372,92.0421,268.0724,7.3931e-05,8.89e-06,0.0,0 STARLINK-5156,1 53973U 22125K   23273.69324935  .00000889  00000-0  73931-4 0  9999,2 53973  53.2172 263.8372 0001338  92.0421 268.0724 15.08840568 54882,6917.879,95.438,540.669,538.818,0.0
53973.0,STARLINK-5156,PAYLOAD,2023-10-01 08:32:07,15.08847877,0.0001522,53.2175,260.862,96.995,263.1215,2.7727e-05,1.53e-06,0.0,0 STARLINK-5156,1 53973U 22125K   23274.35564608  .00000153  00000-0  27727-4 0  9992,2 53973  53.2175 260.8620 0001522  96.9950 263.1215 15.08847877 54918,6917.856,95.437,540.774,538.668,0.0
53973.0,STARLINK-5156,PAYLOAD,2023-10-01 16:29:04,15.08836054,0.0001662,53.2181,259.3723,107.6543,252.4631,-6.6505e-06,-3.94e-06,0.0,0 STARLINK-5156,1 53973U 22125K   23274.68685410 -.00000394  00000-0 -66505-5 0  9990,2 53973  53.2181 259.3723 0001662 107.6543 252.4631 15.08836054 55037,6917.892,95.438,540.907,538.608,0.0
53973.0,STARLINK-5156,PAYLOAD,2023-10-02 08:22:55,15.08841871,0.0001581,53.2162,256.401,89.6874,270.4299,1.4741e-05,-5.3e-07,0.0,0 STARLINK-5156,1 53973U 22125K   23275.34925161 -.00000053  00000-0  14741-4 0  9999,2 53973  53.2162 256.4010 0001581  89.6874 270.4299 15.08841871 55065,6917.875,95.437,540.833,538.646,0.0
53973.0,STARLINK-5156,PAYLOAD,2023-10-03 05:02:56,15.08829098,0.000135,53.2166,252.5369,91.666,268.4487,-0.0001303,-2.36e-05,0.0,0 STARLINK-5156,1 53973U 22125K   23276.21037476 -.00002360  00000-0 -13030-3 0  9992,2 53973  53.2166 252.5369 0001350  91.6660 268.4487 15.08829098 55268,6917.914,95.438,540.713,538.845,0.0
